2025-226A               
1 65938U 25226A   25304.26551589  .00012820  00000+0  75135-3 0  9999
2 65938  97.6668  18.4551 0014613 210.5413 149.4967 15.11835230  3057
2025-226B               
1 65939U 25226B   25304.28768655  .00008327  00000+0  51803-3 0  9999
2 65939  97.6627  18.4157 0020764 214.9143 145.0725 15.09697303  3044
2025-226C               
1 65940U 25226C   25304.26700431  .00013039  00000+0  76646-3 0  9995
2 65940  97.6578  18.4312 0014575 208.3556 151.6883 15.11723877  3049
YOTSUBA-KULOVER         
1 65941U 98067XN  25304.20002539  .00061481  00000+0  96447-3 0  9992
2 65941  51.6335 352.7259 0002525 341.0736  19.0160 15.53087293  3239
BOTAN                   
1 65942U 98067XP  25303.55162490  .00085715  00000+0  13052-2 0  9999
2 65942  51.6336 355.8960 0004519 355.9022   4.1931 15.53757174  3133
E-KAGAKU-1              
1 65943U 98067XQ  25303.55613179  .00063292  00000+0  99541-3 0  9999
2 65943  51.6342 355.9257 0004269 345.4826  14.6041 15.52998589  3133
2025-226D               
1 65944U 25226D   25290.94606692 -.00000071  00000+0  00000+0 0  9992
2 65944  97.6632   5.1263 0019022 287.2735  72.6416 15.16526485  1020
SHIYAN-31               
1 65945U 25227A   25304.29837972  .00011354  00000+0  52041-3 0  9996
2 65945  80.0037  78.2685 0011552 210.1939 149.8624 15.20316580  2720
CZ-2D R/B               
1 65946U 25227B   25304.28200466  .00012810  00000+0  47353-3 0  9996
2 65946  80.1539  78.5748 0021438 336.4395  23.5851 15.27394346  2738
KUIPER-00101            
1 65947U 25228A   25304.20637384  .00042383  00000+0  12430-2 0  9998
2 65947  51.8781 225.4753 0006323 193.2351 166.8470 15.34745638  3886
KUIPER-00113            
1 65948U 25228B   25304.26862497  .00033884  00000+0  98909-3 0  9992
2 65948  51.8790 225.1472 0006496 190.8139 169.2709 15.34997496  3894
KUIPER-00117            
1 65949U 25228C   25304.20398947  .00040384  00000+0  11776-2 0  9990
2 65949  51.8789 225.4638 0006142 192.8992 167.1838 15.34947354  3884
